*******************************************************************************
JPL/HORIZONS               241 Germania (A884 RA)          2020-Jun-22 08:45:23
Rec #:     241 (+COV) Soln.date: 2020-May-20_01:01:43   # obs: 2707 (1884-2020)
 
IAU76/J2000 helio. ecliptic osc. elements (au, days, deg., period=Julian yrs):
 
  EPOCH=  2454792.5 ! 2008-Nov-22.00 (TDB)         Residual RMS= .28349
   EC= .09668681218327033  QR= 2.757536874681374   TP= 2454139.3087326698
   OM= 270.5642767834717   W=  78.76050072097081   IN= 5.511676881618759
   A= 3.052691925539387    MA= 120.703531541707    ADIST= 3.347846976397399
   PER= 5.33375            N= .184790481           ANGMOM= .029914615
   DAN= 2.96822            DDN= 3.08224            L= 349.27391
   B= 5.4056507            MOID= 1.75738001        TP= 2007-Feb-07.8087326698
 
Asteroid physical parameters (km, seconds, rotational period in hours):
   GM= n.a.                RAD= 84.45              ROTPER= 15.51
   H= 7.8                  G= .150                 B-V= .689
                           ALBEDO= .0575           STYP= B
 
ASTEROID comments: 
1: soln ref.= JPL#108, OCC=0
2: source=ORB
*******************************************************************************
 
 
*******************************************************************************
Ephemeris / WWW_USER Mon Jun 22 08:45:23 2020 Pasadena, USA      / Horizons
*******************************************************************************
Target body name: 241 Germania (A884 RA)          {source: JPL#108}
Center body name: Solar System Barycenter (0)     {source: DE431}
Center-site name: BODY CENTER
*******************************************************************************
Start time      : A.D. 1969-Jun-28 00:00:00.0000 TDB
Stop  time      : A.D. 2071-May-04 00:00:00.0000 TDB
Step-size       : 7200 minutes
*******************************************************************************
Center geodetic : 0.00000000,0.00000000,0.0000000 {E-lon(deg),Lat(deg),Alt(km)}
Center cylindric: 0.00000000,0.00000000,0.0000000 {E-lon(deg),Dxy(km),Dz(km)}
Center radii    : (undefined)                                                  
Small perturbers: Yes                             {source: SB431-N16}
Output units    : AU-D
Output type     : GEOMETRIC cartesian states
Output format   : 2 (position and velocity)
Reference frame : Ecliptic of J2000.0
*******************************************************************************
Initial IAU76/J2000 heliocentric ecliptic osculating elements (au, days, deg.):
  EPOCH=  2454792.5 ! 2008-Nov-22.00 (TDB)         Residual RMS= .28349        
   EC= .09668681218327033  QR= 2.757536874681374   TP= 2454139.3087326698      
   OM= 270.5642767834717   W=  78.76050072097081   IN= 5.511676881618759       
  Equivalent ICRF heliocentric equatorial cartesian coordinates (au, au/d):
   X=-1.553647411738216E+00  Y= 2.645784637498531E+00  Z= 9.866143294494902E-01
  VX=-8.438142470559070E-03 VY=-3.206947603391155E-03 VZ=-2.281795079136514E-03
Asteroid physical parameters (km, seconds, rotational period in hours):        
   GM= n.a.                RAD= 84.45              ROTPER= 15.51               
   H= 7.8                  G= .150                 B-V= .689                   
                           ALBEDO= .0575           STYP= B                     
*******************************************************************************
            JDTDB,            Calendar Date (TDB),        delta-T,                      X,                      Y,                      Z,                     VX,                     VY,                     VZ,
******************************************************************************************************************************************************************************************************************
$$SOE
2474280.500000000, A.D. 2062-Apr-01 00:00:00.0000,      69.185630, -1.799861223507252E+00,  2.682372173753020E+00, -1.773288750388265E-01, -7.999614748704389E-03, -4.574371671995961E-03, -7.674830508565800E-04,
2474285.500000000, A.D. 2062-Apr-06 00:00:00.0000,      69.185633, -1.839663106516360E+00,  2.659210406130291E+00, -1.811468537878034E-01, -7.920893116251659E-03, -4.690105900730107E-03, -7.596848762929755E-04,
2474290.500000000, A.D. 2062-Apr-11 00:00:00.0000,      69.185624, -1.879067720883014E+00,  2.635473419493642E+00, -1.849254900148141E-01, -7.840711207448234E-03, -4.804457292727758E-03, -7.517464292167938E-04,
2474295.500000000, A.D. 2062-Apr-16 00:00:00.0000,      69.185602, -1.918067823853333E+00,  2.611168157501430E+00, -1.886640881557680E-01, -7.759092451765977E-03, -4.917414117356319E-03, -7.436700272644008E-04,
2474300.500000000, A.D. 2062-Apr-21 00:00:00.0000,      69.185568, -1.956656289493781E+00,  2.586301621584825E+00, -1.923619642082585E-01, -7.676060147505678E-03, -5.028964994506779E-03, -7.354579774269659E-04,
2474305.500000000, A.D. 2062-Apr-26 00:00:00.0000,      69.185521, -1.994826108030133E+00,  2.560880869218948E+00, -1.960184456775869E-01, -7.591637459805371E-03, -5.139098885168837E-03, -7.271125757441879E-04,
2474310.500000000, A.D. 2062-May-01 00:00:00.0000,      69.185463, -2.032570385177950E+00,  2.534913012240462E+00, -1.996328715212777E-01, -7.505847419257585E-03, -5.247805082184189E-03, -7.186361070267598E-04,
2474315.500000000, A.D. 2062-May-06 00:00:00.0000,      69.185397, -2.069882341467374E+00,  2.508405215211735E+00, -2.032045920924101E-01, -7.418712920966494E-03, -5.355073200856325E-03, -7.100308446564460E-04,
2474320.500000000, A.D. 2062-May-11 00:00:00.0000,      69.185321, -2.106755311563736E+00,  2.481364693832089E+00, -2.067329690820521E-01, -7.330256723784531E-03, -5.460893169539704E-03, -7.012990504201401E-04,
2474325.500000000, A.D. 2062-May-16 00:00:00.0000,      69.185236, -2.143182743584650E+00,  2.453798713395803E+00, -2.102173754608765E-01, -7.240501449681507E-03, -5.565255220366983E-03, -6.924429743450351E-04,
2474330.500000000, A.D. 2062-May-21 00:00:00.0000,      69.185139, -2.179158198414368E+00,  2.425714587296022E+00, -2.136571954199431E-01, -7.149469583280391E-03, -5.668149880157873E-03, -6.834648545309294E-04,
2474335.500000000, A.D. 2062-May-26 00:00:00.0000,      69.185034, -2.214675349016278E+00,  2.397119675573689E+00, -2.170518243106457E-01, -7.057183471583359E-03, -5.769567961501998E-03, -6.743669169844187E-04,
2474340.500000000, A.D. 2062-May-31 00:00:00.0000,      69.184923, -2.249727979744522E+00,  2.368021383510657E+00, -2.204006685838459E-01, -6.963665323892051E-03, -5.869500553998872E-03, -6.651513754599611E-04,
2474345.500000000, A.D. 2062-Jun-05 00:00:00.0000,      69.184806, -2.284309985655682E+00,  2.338427160266218E+00, -2.237031457282316E-01, -6.868937211913384E-03, -5.967939015648778E-03, -6.558204313094169E-04,
2474350.500000000, A.D. 2062-Jun-10 00:00:00.0000,      69.184685, -2.318415371821437E+00,  2.308344497556326E+00, -2.269586842079483E-01, -6.773021070039960E-03, -6.064874964390923E-03, -6.463762733413380E-04,
2474355.500000000, A.D. 2062-Jun-15 00:00:00.0000,      69.184557, -2.352038252643028E+00,  2.277780928374733E+00, -2.301667233995492E-01, -6.675938695790661E-03, -6.160300269794174E-03, -6.368210776891500E-04,
2474360.500000000, A.D. 2062-Jun-20 00:00:00.0000,      69.184425, -2.385172851168305E+00,  2.246744025755284E+00, -2.333267135283082E-01, -6.577711750397566E-03, -6.254207044906720E-03, -6.271570076873538E-04,
2474365.500000000, A.D. 2062-Jun-25 00:00:00.0000,      69.184289, -2.417813498412035E+00,  2.215241401574529E+00, -2.364381156039251E-01, -6.478361759531376E-03, -6.346587638290710E-03, -6.173862137524546E-04,
2474370.500000000, A.D. 2062-Jun-30 00:00:00.0000,      69.184151, -2.449954632680228E+00,  2.183280705393642E+00, -2.395004013556503E-01, -6.377910114178019E-03, -6.437434626253690E-03, -6.075108332707036E-04,
2474375.500000000, A.D. 2062-Jul-05 00:00:00.0000,      69.184014, -2.481590798899403E+00,  2.150869623338724E+00, -2.425130531669019E-01, -6.276378071773204E-03, -6.526740805263206E-03, -5.975329905129981E-04,
2474380.500000000, A.D. 2062-Jul-10 00:00:00.0000,      69.183878, -2.512716647952390E+00,  2.118015877018905E+00, -2.454755640096182E-01, -6.173786757676231E-03, -6.614499184364927E-03, -5.874547966217544E-04,
2474385.500000000, A.D. 2062-Jul-15 00:00:00.0000,      69.183742, -2.543326936021945E+00,  2.084727222482644E+00, -2.483874373787147E-01, -6.070157166742338E-03, -6.700702977504046E-03, -5.772783496514089E-04,
2474390.500000000, A.D. 2062-Jul-20 00:00:00.0000,      69.183606, -2.573416523941678E+00,  2.051011449212080E+00, -2.512481872266613E-01, -5.965510164662881E-03, -6.785345596062088E-03, -5.670057345591936E-04,
2474395.500000000, A.D. 2062-Jul-25 00:00:00.0000,      69.183472, -2.602980376553375E+00,  2.016876379153424E+00, -2.540573378978093E-01, -5.859866489255173E-03, -6.868420641907557E-03, -5.566390231276716E-04,
2474400.500000000, A.D. 2062-Jul-30 00:00:00.0000,      69.183343, -2.632013562071596E+00,  1.982329865781195E+00, -2.568144240623885E-01, -5.753246752127122E-03, -6.949921900745109E-03, -5.461802739274543E-04,
2474405.500000000, A.D. 2062-Aug-04 00:00:00.0000,      69.183220, -2.660511251457607E+00,  1.947379793195639E+00, -2.595189906505459E-01, -5.645671440709491E-03, -7.029843335466756E-03, -5.356315323695842E-04,
2474410.500000000, A.D. 2062-Aug-09 00:00:00.0000,      69.183103, -2.688468717803945E+00,  1.912034075253461E+00, -2.621705927868089E-01, -5.537160920453812E-03, -7.108179079491453E-03, -5.249948308161608E-04,
2474415.500000000, A.D. 2062-Aug-14 00:00:00.0000,      69.182992, -2.715881335730165E+00,  1.876300654731698E+00, -2.647687957251766E-01, -5.427735437096349E-03, -7.184923430180407E-03, -5.142721887190688E-04,
